XRISM                   
1 57800U 23137A   24284.91901098  .00035753  00000+0  25453-2 0  9996
2 57800  31.0045 354.8842 0008634 273.2065  86.7584 15.03467215 60104
